STARLINK-3268           
1 50190U 21125AL  26113.08449987 -.00000224  00000+0  40023-5 0  9990
2 50190  53.2179  39.8245 0001733 102.9039 257.2147 15.08835237243439
STARLINK-3273           
1 50191U 21125AM  26113.29246239 -.00006501  00000+0 -39129-3 0  9997
2 50191  53.2183  58.8874 0001404  58.6580 301.4549 15.08786677243180
STARLINK-3259           
1 50192U 21125AN  26113.21329578 -.00000570  00000+0 -17689-4 0  9996
2 50192  53.2190  39.2465 0001945  94.9232 265.1982 15.08839129243453
STARLINK-3261           
1 50193U 21125AP  26113.09186038 -.00000187  00000+0  63716-5 0  9991
2 50193  53.2176  39.7891 0001574  81.6256 278.4915 15.08831892243488
STARLINK-3266           
1 50195U 21125AR  26113.22066074 -.00000779  00000+0 -30846-4 0  9990
2 50195  53.2185  39.2132 0001504  90.0772 270.0392 15.08831780243453
STARLINK-3267           
1 50197U 21125AT  26113.20593382 -.00000089  00000+0  12492-4 0  9997
2 50197  53.2180  39.2768 0001476  94.7383 265.3778 15.08838835243501
STARLINK-3264           
1 50198U 21125AU  26113.19122222 -.00000070  00000+0  13682-4 0  9999
2 50198  53.2195  39.3420 0001716  91.0325 269.0864 15.08834330243454
STARLINK-3270           
1 50199U 21125AV  26113.17282011 -.00000016  00000+0  17114-4 0  9995
2 50199  53.2180  39.4256 0001696  85.7626 274.3560 15.08837498243447
STARLINK-3235           
1 50200U 21125AW  26113.06241544  .00002246  00000+0  15922-3 0  9992
2 50200  53.2194  39.8834 0001573  90.2703 269.8470 15.08829411243447
STARLINK-3255           
1 50201U 21125AX  26113.33335648  .00129330  17255-4  41163-3 0  9997
2 50201  53.1912 276.2808 0003744 270.4281 145.6090 15.90969976  6031
STARLINK-3256           
1 50202U 21125AY  26113.23537956  .00000051  00000+0  21286-4 0  9991
2 50202  53.2178  39.1455 0001506  91.2857 268.8308 15.08836565243458
STARLINK-3257           
1 50203U 21125AZ  26113.20322406 -.00000309  00000+0 -13145-5 0  9995
2 50203  53.2174  39.3777 0001430  88.2533 271.8623 15.08837812243514
STARLINK-3254           
1 50204U 21125BA  26113.17745741 -.00000160  00000+0  80252-5 0  9990
2 50204  53.2183  39.4150 0001631  83.1945 276.9233 15.08837355243509
STARLINK-3260           
1 50205U 21125BB  26112.98517692 -.00000649  00000+0 -22676-4 0  9999
2 50205  53.2186  10.2675 0001901 105.2159 254.9044 15.08836239243848
STARLINK-3323           
1 50804U 22001B   26112.87107340  .00000246  00000+0  33558-4 0  9993
2 50804  53.2170 320.7841 0001625  90.5349 269.5829 15.08830368237214
STARLINK-3333           
1 50805U 22001C   26112.86737690 -.00000409  00000+0 -76066-5 0  9995
2 50805  53.2179 320.8009 0001835  92.2462 267.8740 15.08834956237219
STARLINK-3335           
1 50806U 22001D   26112.99617818 -.00000923  00000+0 -39891-4 0  9994
2 50806  53.2181 320.2226 0001644  88.3816 271.7365 15.08835844237231
STARLINK-3355           
1 50808U 22001F   26112.98881706 -.00000591  00000+0 -19038-4 0  9996
2 50808  53.2179 320.2535 0001595  88.9588 271.1587 15.08839143237236
STARLINK-3232           
1 50809U 22001G   26112.99249456  .00000017  00000+0  19192-4 0  9990
2 50809  53.2172 320.2380 0001557  91.4904 268.6266 15.08837721237232
STARLINK-3338           
1 50812U 22001K   26113.01826982 -.00000333  00000+0 -28185-5 0  9999
2 50812  53.2183 320.2269 0001393  85.9649 274.1502 15.08838254237233
STARLINK-3349           
1 50813U 22001L   26112.71883311 -.00110699  00000+0 -27336-2 0  9996
2 50813  53.2071 276.6613 0001993 105.1815 254.9411 15.40321016237833
STARLINK-3324           
1 50814U 22001M   26112.88853656 -.00000272  00000+0  10320-5 0  9996
2 50814  53.2182 330.7059 0001808  92.9104 267.2095 15.08836699237086
STARLINK-3234           
1 50815U 22001N   26112.89957569 -.00000266  00000+0  13594-5 0  9995
2 50815  53.2178 330.6551 0001390  88.5225 271.5926 15.08835530237083
STARLINK-3342           
1 50816U 22001P   26112.89205043  .00013738  00000+0  73796-3 0  9994
2 50816  53.2154 327.4162 0001187  66.3932 293.7187 15.15193534237122
STARLINK-3341           
1 50817U 22001Q   26112.96214360  .00002164  00000+0  15398-3 0  9990
2 50817  53.2174 330.3742 0001379  93.6879 266.4271 15.08844279237096
STARLINK-3336           
1 50818U 22001R   26112.87749178 -.00000018  00000+0  16940-4 0  9993
2 50818  53.2176 330.7534 0001382  91.8213 268.2937 15.08840936237071
STARLINK-3327           
1 50819U 22001S   26113.01733647 -.00001148  00000+0 -54070-4 0  9997
2 50819  53.2189 330.1269 0001486  93.4998 266.6165 15.08836285237109
STARLINK-3339           
1 50820U 22001T   26113.13141752 -.00000799  00000+0 -32127-4 0  9992
2 50820  53.2178 329.6142 0001412  76.9430 283.1720 15.08837691237112
STARLINK-3346           
1 50821U 22001U   26113.03942701  .00007469  00000+0  48750-3 0  9992
2 50821  53.2167 329.9109 0001627  90.1232 269.9946 15.08792444237100
STARLINK-3343           
1 50822U 22001V   26112.92533530 -.00000211  00000+0  48630-5 0  9994
2 50822  53.2180 330.5390 0001336  89.2730 270.8415 15.08840582237081
