OBJECT_NAME,OBJECT_ID,EPOCH,MEAN_MOTION,ECCENTRICITY,INCLINATION,RA_OF_ASC_NODE,ARG_OF_PERICENTER,MEAN_ANOMALY,EPHEMERIS_TYPE,CLASSIFICATION_TYPE,NORAD_CAT_ID,ELEMENT_SET_NO,REV_AT_EPOCH,BSTAR,MEAN_MOTION_DOT,MEAN_MOTION_DDOT
STARLINK-3268,2021-125AL,2026-04-23T02:01:40.788768,15.08835237,.00017333,53.2179,39.8245,102.9039,257.2147,0,U,50190,999,24343,.4002324E-5,-.224E-5,0
STARLINK-3273,2021-125AM,2026-04-23T07:01:08.750496,15.08786677,.00014046,53.2183,58.8874,58.6580,301.4549,0,U,50191,999,24318,-.3912916E-3,-.6501E-4,0
STARLINK-3259,2021-125AN,2026-04-23T05:07:08.755392,15.08839129,.00019455,53.2190,39.2465,94.9232,265.1982,0,U,50192,999,24345,-.17689302E-4,-.57E-5,0
STARLINK-3261,2021-125AP,2026-04-23T02:12:16.736832,15.08831892,.00015748,53.2176,39.7891,81.6256,278.4915,0,U,50193,999,24348,.637155E-5,-.187E-5,0
STARLINK-3266,2021-125AR,2026-04-23T05:17:45.087936,15.08831780,.0001504,53.2185,39.2132,90.0772,270.0392,0,U,50195,999,24345,-.30846072E-4,-.779E-5,0
STARLINK-3267,2021-125AT,2026-04-23T04:56:32.682048,15.08838835,.00014765,53.2180,39.2768,94.7383,265.3778,0,U,50197,999,24350,.12491567E-4,-.89E-6,0
STARLINK-3264,2021-125AU,2026-04-23T04:35:21.599808,15.08834330,.00017168,53.2195,39.3420,91.0325,269.0864,0,U,50198,999,24345,.13682475E-4,-.7E-6,0
STARLINK-3270,2021-125AV,2026-04-23T04:08:51.657504,15.08837498,.00016964,53.2180,39.4256,85.7626,274.3560,0,U,50199,999,24344,.17113575E-4,-.16E-6,0
STARLINK-3235,2021-125AW,2026-04-23T01:29:52.694016,15.08829411,.00015738,53.2194,39.8834,90.2703,269.8470,0,U,50200,999,24344,.1592209E-3,.2246E-4,0
STARLINK-3255,2021-125AX,2026-04-23T08:00:01.999872,15.90969976,.00037445,53.1912,276.2808,270.4281,145.6090,0,U,50201,999,603,.4116296E-3,.12933E-2,.17255334E-4
STARLINK-3256,2021-125AY,2026-04-23T05:38:56.793984,15.08836565,.00015064,53.2178,39.1455,91.2857,268.8308,0,U,50202,999,24345,.21286265E-4,.51E-6,0
STARLINK-3257,2021-125AZ,2026-04-23T04:52:38.558784,15.08837812,.00014304,53.2174,39.3777,88.2533,271.8623,0,U,50203,999,24351,-.1314483E-5,-.309E-5,0
STARLINK-3254,2021-125BA,2026-04-23T04:15:32.320224,15.08837355,.00016318,53.2183,39.4150,83.1945,276.9233,0,U,50204,999,24350,.802516E-5,-.16E-5,0
STARLINK-3260,2021-125BB,2026-04-22T23:38:39.285888,15.08836239,.00019014,53.2186,10.2675,105.2159,254.9044,0,U,50205,999,24384,-.22675526E-4,-.649E-5,0
STARLINK-3323,2022-001B,2026-04-22T20:54:20.741760,15.08830368,.0001625,53.2170,320.7841,90.5349,269.5829,0,U,50804,999,23721,.33558E-4,.246E-5,0
STARLINK-3333,2022-001C,2026-04-22T20:49:01.364160,15.08834956,.0001835,53.2179,320.8009,92.2462,267.8740,0,U,50805,999,23721,-.76066E-5,-.409E-5,0
STARLINK-3335,2022-001D,2026-04-22T23:54:29.794752,15.08835844,.00016449,53.2181,320.2226,88.3816,271.7365,0,U,50806,999,23723,-.3989133E-4,-.923E-5,0
STARLINK-3355,2022-001F,2026-04-22T23:43:53.793984,15.08839143,.00015953,53.2179,320.2535,88.9588,271.1587,0,U,50808,999,23723,-.19038129E-4,-.591E-5,0
STARLINK-3232,2022-001G,2026-04-22T23:49:11.529984,15.08837721,.00015578,53.2172,320.2380,91.4904,268.6266,0,U,50809,999,23723,.19192289E-4,.17E-6,0
STARLINK-3338,2022-001K,2026-04-23T00:26:18.512448,15.08838254,.00013939,53.2183,320.2269,85.9649,274.1502,0,U,50812,999,23723,-.2818536E-5,-.333E-5,0
STARLINK-3349,2022-001L,2026-04-22T17:15:07.180704,15.40321016,.0001993,53.2071,276.6613,105.1815,254.9411,0,U,50813,999,23783,-.27336E-2,-.110699E-2,0
STARLINK-3324,2022-001M,2026-04-22T21:19:29.558784,15.08836699,.0001808,53.2182,330.7059,92.9104,267.2095,0,U,50814,999,23708,.1032E-5,-.272E-5,0
STARLINK-3234,2022-001N,2026-04-22T21:35:23.339616,15.08835530,.000139,53.2178,330.6551,88.5225,271.5926,0,U,50815,999,23708,.13594E-5,-.266E-5,0
STARLINK-3342,2022-001P,2026-04-22T21:24:33.157152,15.15193534,.0001187,53.2154,327.4162,66.3932,293.7187,0,U,50816,999,23712,.73796E-3,.13738E-3,0
STARLINK-3341,2022-001Q,2026-04-22T23:05:29.207040,15.08844279,.00013798,53.2174,330.3742,93.6879,266.4271,0,U,50817,999,23709,.15397988E-3,.2164E-4,0
STARLINK-3336,2022-001R,2026-04-22T21:03:35.289792,15.08840936,.0001382,53.2176,330.7534,91.8213,268.2937,0,U,50818,999,23707,.1694E-4,-.18E-6,0
STARLINK-3327,2022-001S,2026-04-23T00:24:57.871008,15.08836285,.00014864,53.2189,330.1269,93.4998,266.6165,0,U,50819,999,23710,-.54069689E-4,-.1148E-4,0
STARLINK-3339,2022-001T,2026-04-23T03:09:14.473728,15.08837691,.00014125,53.2178,329.6142,76.9430,283.1720,0,U,50820,999,23711,-.32126975E-4,-.799E-5,0
STARLINK-3346,2022-001U,2026-04-23T00:56:46.493664,15.08792444,.0001627,53.2167,329.9109,90.1232,269.9946,0,U,50821,999,23710,.48750089E-3,.7469E-4,0
STARLINK-3343,2022-001V,2026-04-22T22:12:28.969920,15.08840582,.0001336,53.2180,330.5390,89.2730,270.8415,0,U,50822,999,23708,.4863E-5,-.211E-5,0
